ATLAS CENTAUR R/B       
1 06155U 72065B   25338.55006627  .00002243  00000+0  31037-3 0  9996
2 06155  35.0000 143.1703 0034571 289.7370  69.9603 14.77373289827182
SL-8 R/B                
1 08459U 75112B   25338.62222279  .00000519  00000+0  17962-3 0  9997
2 08459  74.0596 193.7890 0016464 306.0174  53.9453 14.38137266618205
SL-3 R/B                
1 10114U 77057B   25338.58377764  .00022690  00000+0  52170-3 0  9997
2 10114  97.5677 141.5960 0006410 266.8896  93.1617 15.42654735653656
SEASAT 1                
1 10967U 78064A   25338.65772613  .00000953  00000+0  30518-3 0  9992
2 10967 108.0101 286.0787 0001834 250.0971 109.9977 14.46047774492779
SL-14 R/B               
1 11267U 79011B   25338.60471768  .00001052  00000+0  10172-3 0  9996
2 11267  82.5241 186.7594 0016632  20.2076 339.9798 14.91755202514606
SL-8 R/B                
1 11574U 79089B   25338.51274788  .00000622  00000+0  19614-3 0  9997
2 11574  74.0691 267.2051 0014460 105.1430 255.1327 14.42274892422386
SL-14 R/B               
1 11672U 80005B   25338.62247028  .00001151  00000+0  11422-3 0  9992
2 11672  82.5155  37.3972 0017158 118.2023 242.0931 14.90777192462320
SL-8 R/B                
1 12139U 81003B   25338.56959307  .00033762  00000+0  90058-3 0  9998
2 12139  82.9290  17.7230 0280707 148.3962 213.4477 15.06676841300336
SL-3 R/B                
1 12465U 81046B   25338.63470909  .00020959  00000+0  53163-3 0  9991
2 12465  81.2341  43.6317 0019497 352.9383   7.1580 15.39357617423799
SL-3 R/B                
1 12904U 81103B   25338.62960585  .00012793  00000+0  59014-3 0  9994
2 12904  81.1585 324.8518 0011365 244.5854 115.4201 15.20083092958786
SL-3 R/B                
1 13068U 82013B   25338.61757178  .00009659  00000+0  43150-3 0  9999
2 13068  81.1755 272.1147 0023677 136.9692 223.3397 15.20970849389893
SL-3 R/B                
1 13154U 82039B   25338.61844482  .00006882  00000+0  42412-3 0  9993
2 13154  81.1726 325.4392 0030225 279.8702  79.9111 15.09449265367296
