CCSDS_OMM_VERS = 2.0
CREATION_DATE  = 
ORIGINATOR     = 

OBJECT_NAME    = ATLAS CENTAUR R/B
OBJECT_ID      = 1972-065B
CENTER_NAME    = EARTH
REF_FRAME      = TEME
TIME_SYSTEM    = UTC
MEAN_ELEMENT_THEORY = SGP/SGP4

EPOCH          = 2025-12-04T13:12:05.725728
MEAN_MOTION    = 14.77373289
ECCENTRICITY   = .00345717
INCLINATION    = 35.0000
RA_OF_ASC_NODE = 143.1703
ARG_OF_PERICENTER = 289.7370
MEAN_ANOMALY   = 69.9603

EPHEMERIS_TYPE = 0
CLASSIFICATION_TYPE = U
NORAD_CAT_ID   = 6155
ELEMENT_SET_NO = 999
REV_AT_EPOCH   = 82718
BSTAR          = .31036836E-3
MEAN_MOTION_DOT = .2243E-4
MEAN_MOTION_DDOT = 0

CCSDS_OMM_VERS = 2.0
CREATION_DATE  = 
ORIGINATOR     = 

OBJECT_NAME    = SL-8 R/B
OBJECT_ID      = 1975-112B
CENTER_NAME    = EARTH
REF_FRAME      = TEME
TIME_SYSTEM    = UTC
MEAN_ELEMENT_THEORY = SGP/SGP4

EPOCH          = 2025-12-04T14:56:00.049056
MEAN_MOTION    = 14.38137266
ECCENTRICITY   = .00164645
INCLINATION    = 74.0596
RA_OF_ASC_NODE = 193.7890
ARG_OF_PERICENTER = 306.0174
MEAN_ANOMALY   = 53.9453

EPHEMERIS_TYPE = 0
CLASSIFICATION_TYPE = U
NORAD_CAT_ID   = 8459
ELEMENT_SET_NO = 999
REV_AT_EPOCH   = 61820
BSTAR          = .17962315E-3
MEAN_MOTION_DOT = .519E-5
MEAN_MOTION_DDOT = 0

CCSDS_OMM_VERS = 2.0
CREATION_DATE  = 
ORIGINATOR     = 

OBJECT_NAME    = SL-3 R/B
OBJECT_ID      = 1977-057B
CENTER_NAME    = EARTH
REF_FRAME      = TEME
TIME_SYSTEM    = UTC
MEAN_ELEMENT_THEORY = SGP/SGP4

EPOCH          = 2025-12-04T14:00:38.388096
MEAN_MOTION    = 15.42654735
ECCENTRICITY   = .00064102
INCLINATION    = 97.5677
RA_OF_ASC_NODE = 141.5960
ARG_OF_PERICENTER = 266.8896
MEAN_ANOMALY   = 93.1617

EPHEMERIS_TYPE = 0
CLASSIFICATION_TYPE = U
NORAD_CAT_ID   = 10114
ELEMENT_SET_NO = 999
REV_AT_EPOCH   = 65365
BSTAR          = .52170344E-3
MEAN_MOTION_DOT = .2269E-3
MEAN_MOTION_DDOT = 0

CCSDS_OMM_VERS = 2.0
CREATION_DATE  = 
ORIGINATOR     = 

OBJECT_NAME    = SEASAT 1
OBJECT_ID      = 1978-064A
CENTER_NAME    = EARTH
REF_FRAME      = TEME
TIME_SYSTEM    = UTC
MEAN_ELEMENT_THEORY = SGP/SGP4

EPOCH          = 2025-12-04T15:47:07.537632
MEAN_MOTION    = 14.46047774
ECCENTRICITY   = .00018347
INCLINATION    = 108.0101
RA_OF_ASC_NODE = 286.0787
ARG_OF_PERICENTER = 250.0971
MEAN_ANOMALY   = 109.9977

EPHEMERIS_TYPE = 0
CLASSIFICATION_TYPE = U
NORAD_CAT_ID   = 10967
ELEMENT_SET_NO = 999
REV_AT_EPOCH   = 49277
BSTAR          = .30517953E-3
MEAN_MOTION_DOT = .953E-5
MEAN_MOTION_DDOT = 0

CCSDS_OMM_VERS = 2.0
CREATION_DATE  = 
ORIGINATOR     = 

OBJECT_NAME    = SL-14 R/B
OBJECT_ID      = 1979-011B
CENTER_NAME    = EARTH
REF_FRAME      = TEME
TIME_SYSTEM    = UTC
MEAN_ELEMENT_THEORY = SGP/SGP4

EPOCH          = 2025-12-04T14:30:47.607552
MEAN_MOTION    = 14.91755202
ECCENTRICITY   = .00166327
INCLINATION    = 82.5241
RA_OF_ASC_NODE = 186.7594
ARG_OF_PERICENTER = 20.2076
MEAN_ANOMALY   = 339.9798

EPHEMERIS_TYPE = 0
CLASSIFICATION_TYPE = U
NORAD_CAT_ID   = 11267
ELEMENT_SET_NO = 999
REV_AT_EPOCH   = 51460
BSTAR          = .10171594E-3
MEAN_MOTION_DOT = .1052E-4
MEAN_MOTION_DDOT = 0

CCSDS_OMM_VERS = 2.0
CREATION_DATE  = 
ORIGINATOR     = 

OBJECT_NAME    = SL-8 R/B
OBJECT_ID      = 1979-089B
CENTER_NAME    = EARTH
REF_FRAME      = TEME
TIME_SYSTEM    = UTC
MEAN_ELEMENT_THEORY = SGP/SGP4

EPOCH          = 2025-12-04T12:18:21.416832
MEAN_MOTION    = 14.42274892
ECCENTRICITY   = .00144601
INCLINATION    = 74.0691
RA_OF_ASC_NODE = 267.2051
ARG_OF_PERICENTER = 105.1430
MEAN_ANOMALY   = 255.1327

EPHEMERIS_TYPE = 0
CLASSIFICATION_TYPE = U
NORAD_CAT_ID   = 11574
ELEMENT_SET_NO = 999
REV_AT_EPOCH   = 42238
BSTAR          = .19614302E-3
MEAN_MOTION_DOT = .622E-5
MEAN_MOTION_DDOT = 0

CCSDS_OMM_VERS = 2.0
CREATION_DATE  = 
ORIGINATOR     = 

OBJECT_NAME    = SL-14 R/B
OBJECT_ID      = 1980-005B
CENTER_NAME    = EARTH
REF_FRAME      = TEME
TIME_SYSTEM    = UTC
MEAN_ELEMENT_THEORY = SGP/SGP4

EPOCH          = 2025-12-04T14:56:21.432192
MEAN_MOTION    = 14.90777192
ECCENTRICITY   = .00171585
INCLINATION    = 82.5155
RA_OF_ASC_NODE = 37.3972
ARG_OF_PERICENTER = 118.2023
MEAN_ANOMALY   = 242.0931

EPHEMERIS_TYPE = 0
CLASSIFICATION_TYPE = U
NORAD_CAT_ID   = 11672
ELEMENT_SET_NO = 999
REV_AT_EPOCH   = 46232
BSTAR          = .11422296E-3
MEAN_MOTION_DOT = .1151E-4
MEAN_MOTION_DDOT = 0

CCSDS_OMM_VERS = 2.0
CREATION_DATE  = 
ORIGINATOR     = 

OBJECT_NAME    = SL-8 R/B
OBJECT_ID      = 1981-003B
CENTER_NAME    = EARTH
REF_FRAME      = TEME
TIME_SYSTEM    = UTC
MEAN_ELEMENT_THEORY = SGP/SGP4

EPOCH          = 2025-12-04T13:40:12.841248
MEAN_MOTION    = 15.06676841
ECCENTRICITY   = .02807071
INCLINATION    = 82.9290
RA_OF_ASC_NODE = 17.7230
ARG_OF_PERICENTER = 148.3962
MEAN_ANOMALY   = 213.4477

EPHEMERIS_TYPE = 0
CLASSIFICATION_TYPE = U
NORAD_CAT_ID   = 12139
ELEMENT_SET_NO = 999
REV_AT_EPOCH   = 30033
BSTAR          = .90057746E-3
MEAN_MOTION_DOT = .33762E-3
MEAN_MOTION_DDOT = 0

CCSDS_OMM_VERS = 2.0
CREATION_DATE  = 
ORIGINATOR     = 

OBJECT_NAME    = SL-3 R/B
OBJECT_ID      = 1981-046B
CENTER_NAME    = EARTH
REF_FRAME      = TEME
TIME_SYSTEM    = UTC
MEAN_ELEMENT_THEORY = SGP/SGP4

EPOCH          = 2025-12-04T15:13:58.865376
MEAN_MOTION    = 15.39357617
ECCENTRICITY   = .00194975
INCLINATION    = 81.2341
RA_OF_ASC_NODE = 43.6317
ARG_OF_PERICENTER = 352.9383
MEAN_ANOMALY   = 7.1580

EPHEMERIS_TYPE = 0
CLASSIFICATION_TYPE = U
NORAD_CAT_ID   = 12465
ELEMENT_SET_NO = 999
REV_AT_EPOCH   = 42379
BSTAR          = .53162865E-3
MEAN_MOTION_DOT = .20959E-3
MEAN_MOTION_DDOT = 0

CCSDS_OMM_VERS = 2.0
CREATION_DATE  = 
ORIGINATOR     = 

OBJECT_NAME    = SL-3 R/B
OBJECT_ID      = 1981-103B
CENTER_NAME    = EARTH
REF_FRAME      = TEME
TIME_SYSTEM    = UTC
MEAN_ELEMENT_THEORY = SGP/SGP4

EPOCH          = 2025-12-04T15:06:37.945440
MEAN_MOTION    = 15.20083092
ECCENTRICITY   = .00113659
INCLINATION    = 81.1585
RA_OF_ASC_NODE = 324.8518
ARG_OF_PERICENTER = 244.5854
MEAN_ANOMALY   = 115.4201

EPHEMERIS_TYPE = 0
CLASSIFICATION_TYPE = U
NORAD_CAT_ID   = 12904
ELEMENT_SET_NO = 999
REV_AT_EPOCH   = 95878
BSTAR          = .59013565E-3
MEAN_MOTION_DOT = .12793E-3
MEAN_MOTION_DDOT = 0

CCSDS_OMM_VERS = 2.0
CREATION_DATE  = 
ORIGINATOR     = 

OBJECT_NAME    = SL-3 R/B
OBJECT_ID      = 1982-013B
CENTER_NAME    = EARTH
REF_FRAME      = TEME
TIME_SYSTEM    = UTC
MEAN_ELEMENT_THEORY = SGP/SGP4

EPOCH          = 2025-12-04T14:49:18.201792
MEAN_MOTION    = 15.20970849
ECCENTRICITY   = .00236778
INCLINATION    = 81.1755
RA_OF_ASC_NODE = 272.1147
ARG_OF_PERICENTER = 136.9692
MEAN_ANOMALY   = 223.3397

EPHEMERIS_TYPE = 0
CLASSIFICATION_TYPE = U
NORAD_CAT_ID   = 13068
ELEMENT_SET_NO = 999
REV_AT_EPOCH   = 38989
BSTAR          = .43149793E-3
MEAN_MOTION_DOT = .9659E-4
MEAN_MOTION_DDOT = 0

CCSDS_OMM_VERS = 2.0
CREATION_DATE  = 
ORIGINATOR     = 

OBJECT_NAME    = SL-3 R/B
OBJECT_ID      = 1982-039B
CENTER_NAME    = EARTH
REF_FRAME      = TEME
TIME_SYSTEM    = UTC
MEAN_ELEMENT_THEORY = SGP/SGP4

EPOCH          = 2025-12-04T14:50:33.632448
MEAN_MOTION    = 15.09449265
ECCENTRICITY   = .0030225
INCLINATION    = 81.1726
RA_OF_ASC_NODE = 325.4392
ARG_OF_PERICENTER = 279.8702
MEAN_ANOMALY   = 79.9111

EPHEMERIS_TYPE = 0
CLASSIFICATION_TYPE = U
NORAD_CAT_ID   = 13154
ELEMENT_SET_NO = 999
REV_AT_EPOCH   = 36729
BSTAR          = .4241154E-3
MEAN_MOTION_DOT = .6882E-4
MEAN_MOTION_DDOT = 0

